TOMORROW-S2             
1 60485U 24149T   26068.75188364  .00008133  00000+0  27683-3 0  9990
2 60485  97.3857 150.0385 0001648 234.3331 125.7757 15.30674935 86869
STARLINK-35797          
1 66364U 25254S   26068.76132379  .00035831  00000+0  12161-2 0  9995
2 66364  53.1590 232.3333 0001204  68.2693 291.8436 15.30198099 18984
